RSP-03                  
1 65732U 98067XL  26035.85137271  .00659480  19702-3  15177-2 0  9990
2 65732  51.6174 216.5141 0006037 265.5865  94.4454 15.96655854 21717
YOTSUBA-KULOVER         
1 65941U 98067XN  26033.98479468  .00107724  00000+0  89351-3 0  9993
2 65941  51.6239 235.6577 0004246 213.0597 147.0135 15.69363652 18030
BOTAN                   
1 65942U 98067XP  26034.91604493  .00306933  00000+0  14689-2 0  9990
2 65942  51.6183 227.5880 0005467 240.0563 119.9896 15.81334182 18228
E-KAGAKU-1              
1 65943U 98067XQ  26034.94039252  .00118334  00000+0  97344-3 0  9995
2 65943  51.6262 230.7980 0003242 231.2100 128.8608 15.69525109 18184
HRC MONOBLOCK CAMERA    
1 66052U 98067XR  26035.71861745  .00045006  00000+0  57495-3 0  9991
2 66052  51.6282 231.4945 0000535   1.9112 358.1883 15.58789985 17245
HTV-X1                  
1 66174U 25241A   26035.01771291  .00010297  00000+0  19874-3 0  9992
2 66174  51.6311 238.8105 0011107  61.9619 298.2491 15.48378125   517
SZ-21 MODULE            
1 66515U 25246C   26036.06577666  .00039319  00000+0  37389-3 0  9999
2 66515  41.4761  43.8031 0003129 275.8658  84.1826 15.66077390 12953
SHENZHOU-22             
1 66645U 25272A   26035.29570937  .00017580  00000+0  22165-3 0  9992
2 66645  41.4675  51.1227 0005972 356.5106   3.5690 15.59172508267644
SOYUZ-MS 28             
1 66664U 25275A   26035.92128257  .00010436  00000+0  20116-3 0  9997
2 66664  51.6314 234.3429 0011123  65.2841 294.9304 15.48398202551252
DUPLEX                  
1 66906U 98067XS  26036.13312509  .00037635  00000+0  57766-3 0  9995
2 66906  51.6288 232.0111 0001468  84.3836 275.7322 15.53908172 10066
1998-067XT              
1 66907U 98067XT  26035.56125024  .00098859  00000+0  11614-2 0  9992
2 66907  51.6256 233.4416 0002347 188.1617 171.9338 15.60654378  9990
1998-067XU              
1 66908U 98067XU  26035.56076192  .00100287  00000+0  11761-2 0  9996
2 66908  51.6255 233.4362 0002116 187.7301 172.3660 15.60694624  9990
